[{"OBJECT_NAME":"PE2_FLT1 (TYVAK-0261)","OBJECT_ID":"2024-043H","EPOCH":"2026-03-09T22:11:30.005376","MEAN_MOTION":14.96611647,"ECCENTRICITY":0.00060821,"INCLINATION":97.8224,"RA_OF_ASC_NODE":199.4267,"ARG_OF_PERICENTER":22.6188,"MEAN_ANOMALY":337.53,"EPHEMERIS_TYPE":0,"CLASSIFICATION_TYPE":"U","NORAD_CAT_ID":59105,"ELEMENT_SET_NO":999,"REV_AT_EPOCH":10980,"BSTAR":0.00036312112,"MEAN_MOTION_DOT":4.08e-5,"MEAN_MOTION_DDOT":0},{"OBJECT_NAME":"STARLINK-32587","OBJECT_ID":"2024-225T","EPOCH":"2026-03-09T22:00:01.999584","MEAN_MOTION":14.98351768,"ECCENTRICITY":0.00034209,"INCLINATION":70.0008,"RA_OF_ASC_NODE":163.7002,"ARG_OF_PERICENTER":270.5021,"MEAN_ANOMALY":8.8291,"EPHEMERIS_TYPE":0,"CLASSIFICATION_TYPE":"U","NORAD_CAT_ID":62180,"ELEMENT_SET_NO":999,"REV_AT_EPOCH":576,"BSTAR":-0.0037866844,"MEAN_MOTION_DOT":-0.00045013,"MEAN_MOTION_DDOT":0}]
